ONEWEB-0153             
1 48044U 21025C   23229.06367230  .00000038  00000+0  69679-4 0  9996
2 48044  87.9082 166.1170 0002162  79.1352 281.0020 13.13467044117674
ONEWEB-0154             
1 48045U 21025D   23229.36627464  .00000598  00000+0  16018-2 0  9996
2 48045  87.9086 166.0645 0002117  81.1952 278.9417 13.13471793117675
ONEWEB-0116             
1 48046U 21025E   23229.33241668 -.00000045  00000+0 -15871-3 0  9998
2 48046  87.9082 166.0433 0001801  84.4391 275.6944 13.13468690117805
ONEWEB-0150             
1 48047U 21025F   23229.07636050 -.00000481  00000+0 -13517-2 0  9991
2 48047  87.9087 166.1174 0002161  75.7881 284.3488 13.13468866117660
ONEWEB-0107             
1 48048U 21025G   23228.39287499 -.00000255  00000+0 -73275-3 0  9992
2 48048  87.9084 166.2510 0002378  72.2460 287.8929 13.13472356117553
ONEWEB-0101             
1 48049U 21025H   23229.11870509  .00000489  00000+0  13037-2 0  9990
2 48049  87.9087 166.1176 0002287  80.6651 279.4737 13.13470512117622
ONEWEB-0113             
1 48050U 21025J   23229.32394784 -.00000187  00000+0 -54714-3 0  9996
2 48050  87.9080 166.1177 0001975  85.0929 275.0425 13.13468670117738
ONEWEB-0112             
1 48051U 21025K   23229.08272047 -.00000238  00000+0 -68621-3 0  9996
2 48051  87.9083 166.1128 0002054  77.8941 282.2418 13.13470206117729
